{
 "type": "FeatureCollection",
 "crs": {
  "type": "name",
  "properties": {
   "name": "urn:ogc:def:crs:OGC:1.3:CRS84"
  }
 },
 "features": [
  {
   "type": "Feature",
   "properties": {
    "CC": 1
   },
   "geometry": {
    "type": "Point",
    "coordinates": [
     -61.457909,
     -27.391629
    ]
   }
  },
  {
   "type": "Feature",
   "properties": {
    "CC": 2
   },
   "geometry": {
    "type": "Point",
    "coordinates": [
     -61.649514,
     -27.434811
    ]
   }
  },
  {
   "type": "Feature",
   "properties": {
    "CC": 3
   },
   "geometry": {
    "type": "Point",
    "coordinates": [
     -60.460972,
     -26.395023
    ]
   }
  },
  {
   "type": "Feature",
   "properties": {
    "CC": 4
   },
   "geometry": {
    "type": "Point",
    "coordinates": [
     -61.166741,
     -27.885844
    ]
   }
  },
  {
   "type": "Feature",
   "properties": {
    "CC": 5
   },
   "geometry": {
    "type": "Point",
    "coordinates": [
     -59.794454,
     -26.992286
    ]
   }
  },
  {
   "type": "Feature",
   "properties": {
    "CC": 6
   },
   "geometry": {
    "type": "Point",
    "coordinates": [
     -59.004531,
     -26.78365
    ]
   }
  },
  {
   "type": "Feature",
   "properties": {
    "CC": 7
   },
   "geometry": {
    "type": "Point",
    "coordinates": [
     -60.267963,
     -26.922072
    ]
   }
  },
  {
   "type": "Feature",
   "properties": {
    "CC": 8
   },
   "geometry": {
    "type": "Point",
    "coordinates": [
     -61.278388,
     -27.078227
    ]
   }
  },
  {
   "type": "Feature",
   "properties": {
    "CC": 9
   },
   "geometry": {
    "type": "Point",
    "coordinates": [
     -60.897192,
     -26.800928
    ]
   }
  },
  {
   "type": "Feature",
   "properties": {
    "CC": 10
   },
   "geometry": {
    "type": "Point",
    "coordinates": [
     -60.989672,
     -27.45532
    ]
   }
  },
  {
   "type": "Feature",
   "properties": {
    "CC": 11
   },
   "geometry": {
    "type": "Point",
    "coordinates": [
     -59.435244,
     -26.424085
    ]
   }
  },
  {
   "type": "Feature",
   "properties": {
    "CC": 12
   },
   "geometry": {
    "type": "Point",
    "coordinates": [
     -61.039738,
     -26.897595
    ]
   }
  },
  {
   "type": "Feature",
   "properties": {
    "CC": 13
   },
   "geometry": {
    "type": "Point",
    "coordinates": [
     -61.13982,
     -26.336171
    ]
   }
  },
  {
   "type": "Feature",
   "properties": {
    "CC": 14
   },
   "geometry": {
    "type": "Point",
    "coordinates": [
     -61.166591,
     -27.229881
    ]
   }
  },
  {
   "type": "Feature",
   "properties": {
    "CC": 15
   },
   "geometry": {
    "type": "Point",
    "coordinates": [
     -60.031819,
     -26.600032
    ]
   }
  },
  {
   "type": "Feature",
   "properties": {
    "CC": 16
   },
   "geometry": {
    "type": "Point",
    "coordinates": [
     -59.378971,
     -27.062601
    ]
   }
  },
  {
   "type": "Feature",
   "properties": {
    "CC": 17
   },
   "geometry": {
    "type": "Point",
    "coordinates": [
     -61.13399,
     -27.396625
    ]
   }
  },
  {
   "type": "Feature",
   "properties": {
    "CC": 18
   },
   "geometry": {
    "type": "Point",
    "coordinates": [
     -61.022176,
     -25.849245
    ]
   }
  },
  {
   "type": "Feature",
   "properties": {
    "CC": 19
   },
   "geometry": {
    "type": "Point",
    "coordinates": [
     -59.974943,
     -26.003433
    ]
   }
  },
  {
   "type": "Feature",
   "properties": {
    "CC": 20
   },
   "geometry": {
    "type": "Point",
    "coordinates": [
     -61.523321,
     -27.88462
    ]
   }
  },
  {
   "type": "Feature",
   "properties": {
    "CC": 21
   },
   "geometry": {
    "type": "Point",
    "coordinates": [
     -60.404313,
     -25.674278
    ]
   }
  },
  {
   "type": "Feature",
   "properties": {
    "CC": 22
   },
   "geometry": {
    "type": "Point",
    "coordinates": [
     -59.188034,
     -27.267798
    ]
   }
  },
  {
   "type": "Feature",
   "properties": {
    "CC": 23
   },
   "geometry": {
    "type": "Point",
    "coordinates": [
     -60.923757,
     -27.645854
    ]
   }
  },
  {
   "type": "Feature",
   "properties": {
    "CC": 24
   },
   "geometry": {
    "type": "Point",
    "coordinates": [
     -60.568269,
     -26.497329
    ]
   }
  },
  {
   "type": "Feature",
   "properties": {
    "CC": 25
   },
   "geometry": {
    "type": "Point",
    "coordinates": [
     -60.054018,
     -26.95842
    ]
   }
  },
  {
   "type": "Feature",
   "properties": {
    "CC": 26
   },
   "geometry": {
    "type": "Point",
    "coordinates": [
     -58.982458,
     -27.202206
    ]
   }
  },
  {
   "type": "Feature",
   "properties": {
    "CC": 27
   },
   "geometry": {
    "type": "Point",
    "coordinates": [
     -60.222416,
     -27.351789
    ]
   }
  },
  {
   "type": "Feature",
   "properties": {
    "CC": 28
   },
   "geometry": {
    "type": "Point",
    "coordinates": [
     -59.659324,
     -26.475869
    ]
   }
  },
  {
   "type": "Feature",
   "properties": {
    "CC": 29
   },
   "geometry": {
    "type": "Point",
    "coordinates": [
     -60.945054,
     -26.545761
    ]
   }
  },
  {
   "type": "Feature",
   "properties": {
    "CC": 30
   },
   "geometry": {
    "type": "Point",
    "coordinates": [
     -60.643587,
     -26.712824
    ]
   }
  },
  {
   "type": "Feature",
   "properties": {
    "CC": 31
   },
   "geometry": {
    "type": "Point",
    "coordinates": [
     -61.077277,
     -27.073403
    ]
   }
  },
  {
   "type": "Feature",
   "properties": {
    "CC": 32
   },
   "geometry": {
    "type": "Point",
    "coordinates": [
     -60.762874,
     -27.615661
    ]
   }
  },
  {
   "type": "Feature",
   "properties": {
    "CC": 33
   },
   "geometry": {
    "type": "Point",
    "coordinates": [
     -60.707359,
     -27.444228
    ]
   }
  },
  {
   "type": "Feature",
   "properties": {
    "CC": 34
   },
   "geometry": {
    "type": "Point",
    "coordinates": [
     -60.639405,
     -27.193391
    ]
   }
  },
  {
   "type": "Feature",
   "properties": {
    "CC": 35
   },
   "geometry": {
    "type": "Point",
    "coordinates": [
     -59.364044,
     -26.647727
    ]
   }
  },
  {
   "type": "Feature",
   "properties": {
    "CC": 36
   },
   "geometry": {
    "type": "Point",
    "coordinates": [
     -60.141548,
     -26.31752
    ]
   }
  },
  {
   "type": "Feature",
   "properties": {
    "CC": 37
   },
   "geometry": {
    "type": "Point",
    "coordinates": [
     -59.066215,
     -27.900727
    ]
   }
  },
  {
   "type": "Feature",
   "properties": {
    "CC": 38
   },
   "geometry": {
    "type": "Point",
    "coordinates": [
     -59.390109,
     -27.874794
    ]
   }
  },
  {
   "type": "Feature",
   "properties": {
    "CC": 39
   },
   "geometry": {
    "type": "Point",
    "coordinates": [
     -60.434398,
     -27.797747
    ]
   }
  },
  {
   "type": "Feature",
   "properties": {
    "CC": 40
   },
   "geometry": {
    "type": "Point",
    "coordinates": [
     -59.17997,
     -27.374422
    ]
   }
  },
  {
   "type": "Feature",
   "properties": {
    "CC": 41
   },
   "geometry": {
    "type": "Point",
    "coordinates": [
     -60.323646,
     -26.725157
    ]
   }
  },
  {
   "type": "Feature",
   "properties": {
    "CC": 42
   },
   "geometry": {
    "type": "Point",
    "coordinates": [
     -61.35263,
     -27.622504
    ]
   }
  },
  {
   "type": "Feature",
   "properties": {
    "CC": 43
   },
   "geometry": {
    "type": "Point",
    "coordinates": [
     -60.456593,
     -26.672981
    ]
   }
  },
  {
   "type": "Feature",
   "properties": {
    "CC": 44
   },
   "geometry": {
    "type": "Point",
    "coordinates": [
     -59.440086,
     -27.508821
    ]
   }
  },
  {
   "type": "Feature",
   "properties": {
    "CC": 45
   },
   "geometry": {
    "type": "Point",
    "coordinates": [
     -59.800388,
     -26.643462
    ]
   }
  },
  {
   "type": "Feature",
   "properties": {
    "CC": 46
   },
   "geometry": {
    "type": "Point",
    "coordinates": [
     -60.750788,
     -26.594639
    ]
   }
  },
  {
   "type": "Feature",
   "properties": {
    "CC": 47
   },
   "geometry": {
    "type": "Point",
    "coordinates": [
     -60.214267,
     -26.548066
    ]
   }
  },
  {
   "type": "Feature",
   "properties": {
    "CC": 48
   },
   "geometry": {
    "type": "Point",
    "coordinates": [
     -60.37799,
     -27.201342
    ]
   }
  },
  {
   "type": "Feature",
   "properties": {
    "CC": 49
   },
   "geometry": {
    "type": "Point",
    "coordinates": [
     -62.436114,
     -24.819807
    ]
   }
  },
  {
   "type": "Feature",
   "properties": {
    "CC": 50
   },
   "geometry": {
    "type": "Point",
    "coordinates": [
     -61.095296,
     -25.303376
    ]
   }
  },
  {
   "type": "Feature",
   "properties": {
    "CC": 51
   },
   "geometry": {
    "type": "Point",
    "coordinates": [
     -60.541476,
     -26.867388
    ]
   }
  },
  {
   "type": "Feature",
   "properties": {
    "CC": 52
   },
   "geometry": {
    "type": "Point",
    "coordinates": [
     -60.413994,
     -26.926713
    ]
   }
  },
  {
   "type": "Feature",
   "properties": {
    "CC": 53
   },
   "geometry": {
    "type": "Point",
    "coordinates": [
     -61.592554,
     -26.113866
    ]
   }
  },
  {
   "type": "Feature",
   "properties": {
    "CC": 54
   },
   "geometry": {
    "type": "Point",
    "coordinates": [
     -59.505233,
     -26.777065
    ]
   }
  },
  {
   "type": "Feature",
   "properties": {
    "CC": 55
   },
   "geometry": {
    "type": "Point",
    "coordinates": [
     -61.575542,
     -26.921169
    ]
   }
  },
  {
   "type": "Feature",
   "properties": {
    "CC": 56
   },
   "geometry": {
    "type": "Point",
    "coordinates": [
     -61.344353,
     -27.314998
    ]
   }
  },
  {
   "type": "Feature",
   "properties": {
    "CC": 57
   },
   "geometry": {
    "type": "Point",
    "coordinates": [
     -59.55768,
     -26.237704
    ]
   }
  },
  {
   "type": "Feature",
   "properties": {
    "CC": 58
   },
   "geometry": {
    "type": "Point",
    "coordinates": [
     -61.066173,
     -27.667979
    ]
   }
  },
  {
   "type": "Feature",
   "properties": {
    "CC": 59
   },
   "geometry": {
    "type": "Point",
    "coordinates": [
     -62.176524,
     -24.581306
    ]
   }
  },
  {
   "type": "Feature",
   "properties": {
    "CC": 60
   },
   "geometry": {
    "type": "Point",
    "coordinates": [
     -60.710512,
     -27.300213
    ]
   }
  },
  {
   "type": "Feature",
   "properties": {
    "CC": 61
   },
   "geometry": {
    "type": "Point",
    "coordinates": [
     -59.907306,
     -26.417138
    ]
   }
  },
  {
   "type": "Feature",
   "properties": {
    "CC": 62
   },
   "geometry": {
    "type": "Point",
    "coordinates": [
     -58.908121,
     -27.328813
    ]
   }
  },
  {
   "type": "Feature",
   "properties": {
    "CC": 63
   },
   "geometry": {
    "type": "Point",
    "coordinates": [
     -60.862287,
     -27.866471
    ]
   }
  },
  {
   "type": "Feature",
   "properties": {
    "CC": 64
   },
   "geometry": {
    "type": "Point",
    "coordinates": [
     -59.474981,
     -26.919906
    ]
   }
  },
  {
   "type": "Feature",
   "properties": {
    "CC": 65
   },
   "geometry": {
    "type": "Point",
    "coordinates": [
     -58.948047,
     -27.692864
    ]
   }
  },
  {
   "type": "Feature",
   "properties": {
    "CC": 66
   },
   "geometry": {
    "type": "Point",
    "coordinates": [
     -58.6994,
     -26.854635
    ]
   }
  },
  {
   "type": "Feature",
   "properties": {
    "CC": 67
   },
   "geometry": {
    "type": "Point",
    "coordinates": [
     -59.9492,
     -27.611639
    ]
   }
  },
  {
   "type": "Feature",
   "properties": {
    "CC": 68
   },
   "geometry": {
    "type": "Point",
    "coordinates": [
     -60.560155,
     -27.09039
    ]
   }
  },
  {
   "type": "Feature",
   "properties": {
    "CC": 69
   },
   "geometry": {
    "type": "Point",
    "coordinates": [
     -62.948279,
     -25.474597
    ]
   }
  },
  {
   "type": "Feature",
   "properties": {
    "CC": 70
   },
   "geometry": {
    "type": "Point",
    "coordinates": [
     -58.752319,
     -27.062706
    ]
   }
  },
  {
   "type": "Feature",
   "properties": {
    "CC": 71
   },
   "geometry": {
    "type": "Point",
    "coordinates": [
     -60.863904,
     -27.425479
    ]
   }
  },
  {
   "type": "Feature",
   "properties": {
    "CC": 72
   },
   "geometry": {
    "type": "Point",
    "coordinates": [
     -60.200426,
     -26.191292
    ]
   }
  },
  {
   "type": "Feature",
   "properties": {
    "CC": 73
   },
   "geometry": {
    "type": "Point",
    "coordinates": [
     -60.825676,
     -27.149077
    ]
   }
  },
  {
   "type": "Feature",
   "properties": {
    "CC": 74
   },
   "geometry": {
    "type": "Point",
    "coordinates": [
     -61.41692,
     -26.375555
    ]
   }
  },
  {
   "type": "Feature",
   "properties": {
    "CC": 75
   },
   "geometry": {
    "type": "Point",
    "coordinates": [
     -60.97901,
     -27.850025
    ]
   }
  },
  {
   "type": "Feature",
   "properties": {
    "CC": 76
   },
   "geometry": {
    "type": "Point",
    "coordinates": [
     -60.412875,
     -27.470676
    ]
   }
  },
  {
   "type": "Feature",
   "properties": {
    "CC": 77
   },
   "geometry": {
    "type": "Point",
    "coordinates": [
     -60.169679,
     -26.989415
    ]
   }
  },
  {
   "type": "Feature",
   "properties": {
    "CC": 78
   },
   "geometry": {
    "type": "Point",
    "coordinates": [
     -61.478772,
     -25.619653
    ]
   }
  },
  {
   "type": "Feature",
   "properties": {
    "CC": 79
   },
   "geometry": {
    "type": "Point",
    "coordinates": [
     -60.487227,
     -26.211356
    ]
   }
  },
  {
   "type": "Feature",
   "properties": {
    "CC": 80
   },
   "geometry": {
    "type": "Point",
    "coordinates": [
     -62.126207,
     -25.559045
    ]
   }
  },
  {
   "type": "Feature",
   "properties": {
    "CC": 81
   },
   "geometry": {
    "type": "Point",
    "coordinates": [
     -62.332864,
     -25.235529
    ]
   }
  },
  {
   "type": "Feature",
   "properties": {
    "CC": 83
   },
   "geometry": {
    "type": "Point",
    "coordinates": [
     -60.59956,
     -25.538841
    ]
   }
  },
  {
   "type": "Feature",
   "properties": {
    "CC": 84
   },
   "geometry": {
    "type": "Point",
    "coordinates": [
     -62.746595,
     -25.083104
    ]
   }
  },
  {
   "type": "Feature",
   "properties": {
    "CC": 85
   },
   "geometry": {
    "type": "Point",
    "coordinates": [
     -60.999679,
     -25.584165
    ]
   }
  },
  {
   "type": "Feature",
   "properties": {
    "CC": 86
   },
   "geometry": {
    "type": "Point",
    "coordinates": [
     -61.801567,
     -24.50783
    ]
   }
  },
  {
   "type": "Feature",
   "properties": {
    "CC": 87
   },
   "geometry": {
    "type": "Point",
    "coordinates": [
     -61.584177,
     -27.070867
    ]
   }
  },
  {
   "type": "Feature",
   "properties": {
    "CC": 88
   },
   "geometry": {
    "type": "Point",
    "coordinates": [
     -60.474132,
     -26.017076
    ]
   }
  },
  {
   "type": "Feature",
   "properties": {
    "CC": 89
   },
   "geometry": {
    "type": "Point",
    "coordinates": [
     -60.751143,
     -26.268876
    ]
   }
  },
  {
   "type": "Feature",
   "properties": {
    "CC": 90
   },
   "geometry": {
    "type": "Point",
    "coordinates": [
     -60.256255,
     -26.023869
    ]
   }
  },
  {
   "type": "Feature",
   "properties": {
    "CC": 91
   },
   "geometry": {
    "type": "Point",
    "coordinates": [
     -60.659208,
     -27.876083
    ]
   }
  },
  {
   "type": "Feature",
   "properties": {
    "CC": 95
   },
   "geometry": {
    "type": "Point",
    "coordinates": [
     -60.829636,
     -26.026475
    ]
   }
  },
  {
   "type": "Feature",
   "properties": {
    "CC": 96
   },
   "geometry": {
    "type": "Point",
    "coordinates": [
     -59.174574,
     -26.559484
    ]
   }
  },
  {
   "type": "Feature",
   "properties": {
    "CC": 98
   },
   "geometry": {
    "type": "Point",
    "coordinates": [
     -61.191348,
     -27.729285
    ]
   }
  },
  {
   "type": "Feature",
   "properties": {
    "CC": 99
   },
   "geometry": {
    "type": "Point",
    "coordinates": [
     -59.279359,
     -26.413477
    ]
   }
  },
  {
   "type": "Feature",
   "properties": {
    "CC": 100
   },
   "geometry": {
    "type": "Point",
    "coordinates": [
     -60.250561,
     -25.8166
    ]
   }
  },
  {
   "type": "Feature",
   "properties": {
    "CC": 101
   },
   "geometry": {
    "type": "Point",
    "coordinates": [
     -60.586577,
     -25.787064
    ]
   }
  },
  {
   "type": "Feature",
   "properties": {
    "CC": 102
   },
   "geometry": {
    "type": "Point",
    "coordinates": [
     -59.308353,
     -27.153406
    ]
   }
  },
  {
   "type": "Feature",
   "properties": {
    "CC": 103
   },
   "geometry": {
    "type": "Point",
    "coordinates": [
     -61.936164,
     -25.204011
    ]
   }
  },
  {
   "type": "Feature",
   "properties": {
    "CC": 105
   },
   "geometry": {
    "type": "Point",
    "coordinates": [
     -60.141773,
     -26.447797
    ]
   }
  },
  {
   "type": "Feature",
   "properties": {
    "CC": 108
   },
   "geometry": {
    "type": "Point",
    "coordinates": [
     -59.017843,
     -26.495356
    ]
   }
  },
  {
   "type": "Feature",
   "properties": {
    "CC": 109
   },
   "geometry": {
    "type": "Point",
    "coordinates": [
     -60.19639,
     -26.714061
    ]
   }
  },
  {
   "type": "Feature",
   "properties": {
    "CC": 110
   },
   "geometry": {
    "type": "Point",
    "coordinates": [
     -60.699673,
     -26.955598
    ]
   }
  },
  {
   "type": "Feature",
   "properties": {
    "CC": 113
   },
   "geometry": {
    "type": "Point",
    "coordinates": [
     -61.421795,
     -26.809277
    ]
   }
  }
 ]
}