{"type":"Feature","properties":{"nombre":"Canal 16","fuente":"OpenStreetMap"},"geometry":{"type":"MultiLineString","coordinates":[[[-59.0431788,-27.4645242],[-59.0425329,-27.4651287],[-59.041878,-27.4656667],[-59.0400491,-27.4673154],[-59.0374148,-27.4696613],[-59.0368654,-27.4701894],[-59.0367162,-27.4703327],[-59.0365949,-27.4704447],[-59.034145,-27.4726614],[-59.0336987,-27.4729756],[-59.0333445,-27.4734146],[-59.0317776,-27.4747704],[-59.0296269,-27.4766759],[-59.0280745,-27.4780773],[-59.0249619,-27.4808422],[-59.0223189,-27.4831732],[-59.017553,-27.4874012],[-59.0150804,-27.4895776],[-59.0079023,-27.495874],[-59.0004089,-27.5020198],[-58.9938462,-27.5072961]],[[-58.9929111,-27.5091623],[-58.992308,-27.5102833],[-58.9887452,-27.5169092],[-58.9879079,-27.5184633],[-58.9880151,-27.5193093],[-58.9873028,-27.5202328]],[[-59.0519354,-27.4566184],[-59.0489842,-27.4593017],[-59.0439671,-27.4637822],[-59.0438267,-27.4639177]],[[-59.0438267,-27.4639177],[-59.0435526,-27.4641728]],[[-59.0435526,-27.4641728],[-59.0433286,-27.464384],[-59.0431788,-27.4645242]]]}}