<?xml version="1.0" encoding="UTF-8"?>
<kml xmlns="http://www.opengis.net/kml/2.2" xmlns:gx="http://www.google.com/kml/ext/2.2" xmlns:kml="http://www.opengis.net/kml/2.2" xmlns:atom="http://www.w3.org/2005/Atom">
<Document>
	<name>Defensa AMGR.kmz</name>
	<Style id="inline">
		<LineStyle>
			<color>ff0000ff</color>
			<width>2</width>
		</LineStyle>
		<PolyStyle>
			<fill>0</fill>
		</PolyStyle>
	</Style>
	<StyleMap id="inline0">
		<Pair>
			<key>normal</key>
			<styleUrl>#inline1</styleUrl>
		</Pair>
		<Pair>
			<key>highlight</key>
			<styleUrl>#inline</styleUrl>
		</Pair>
	</StyleMap>
	<Style id="inline1">
		<LineStyle>
			<color>ff0000ff</color>
			<width>2</width>
		</LineStyle>
		<PolyStyle>
			<fill>0</fill>
		</PolyStyle>
	</Style>
	<Placemark>
		<name>Defensa AMGR</name>
		<styleUrl>#inline0</styleUrl>
		<LineString>
			<tessellate>1</tessellate>
			<coordinates>
				-58.99865183029772,-27.35247761359204,0 -58.99586192462145,-27.35321109722221,0 -58.97387951785327,-27.3728463944517,0 -58.97341525336623,-27.37363868187886,0 -58.96630764091381,-27.37997171155126,0 -58.96615119465166,-27.38023309091877,0 -58.96622174895747,-27.3805886132984,0 -58.96818562977258,-27.39033818888722,0 -58.96807641322035,-27.39060673384248,0 -58.9594277316715,-27.39842282085864,0 -58.9592842294517,-27.39869994278355,0 -58.95926044897129,-27.39893346844292,0 -58.95971386878878,-27.40017152263922,0 -58.95976991356376,-27.4004227664393,0 -58.95975146603264,-27.40068586291253,0 -58.95964979985551,-27.40238600818815,0 -58.95944554491632,-27.40369861618347,0 -58.95871026658119,-27.40532551986852,0 -58.95854217181625,-27.40559504346993,0 -58.958229842668,-27.40587764826222,0 -58.95661771386181,-27.40726454323769,0 -58.95627503881277,-27.40744123520944,0 -58.95538423127287,-27.40762834000413,0 -58.94746919834084,-27.40928408618137,0 -58.94723826290158,-27.40937837036423,0 -58.94695934172788,-27.4095761543059,0 -58.94359581718621,-27.41258298461127,0 -58.93638582884356,-27.41898302590926,0 -58.92923582907641,-27.42530796350744,0 -58.92613650304027,-27.42809138428122,0 -58.92596228797886,-27.42831917075323,0 -58.92581825369308,-27.42866176292922,0 -58.92472027242535,-27.43158926592394,0 -58.92450349476941,-27.43170704603267,0 -58.92253943419857,-27.43209000785676,0 -58.92199589682378,-27.43204612867864,0 -58.92128056632746,-27.43187298253295,0 -58.92021967971688,-27.43150464936091,0 -58.91901061333887,-27.43088621099243,0 -58.91867231369625,-27.4308106080724,0 -58.91822887847092,-27.43087108037017,0 -58.91498033633314,-27.43158424043924,0 -58.90956815541273,-27.43311537181383,0 -58.90435683690809,-27.43465450861747,0 -58.8987641869968,-27.43667393534723,0 -58.89694777192754,-27.43738618914237,0 -58.89644649408726,-27.4376496757397,0 -58.89290971221963,-27.44017923997488,0 -58.89282213693713,-27.44035955678492,0 -58.89353313113904,-27.44093518825963,0 -58.89362750982119,-27.44116900068143,0 -58.89422151801025,-27.44551745664272,0 -58.89509458786895,-27.45113827875528,0 -58.895267268441,-27.45179399093999,0 -58.89559909570671,-27.45243768008254,0 -58.90002497927533,-27.45829570782099,0 -58.90404433566152,-27.46357758605409,0 -58.90437529042158,-27.46405687325796,0 -58.90465063241675,-27.4646324286523,0 -58.90488428150426,-27.46530401982578,0 -58.90538447567597,-27.46670125208545,0 -58.90565027127005,-27.46725077215909,0 -58.90598534593318,-27.46766346766329,0 -58.90657265958394,-27.46820060182412,0 -58.90700670057178,-27.46845822094598,0 -58.9074944960123,-27.4685797652552,0 -58.90806240043676,-27.46855643903448,0 -58.90851392712145,-27.46839085075394,0 -58.90901152996026,-27.46810591219555,0 -58.90955874328669,-27.46782996338879,0 -58.909799293334,-27.46782923670128,0 -58.90995876351558,-27.46791055361132,0 -58.91013440032364,-27.46809258510405,0 -58.91034210100061,-27.46848275714439,0 -58.91051427808792,-27.4688437476575,0 -58.91119269297916,-27.46992249219987,0 -58.91222515511291,-27.4715370004005,0 -58.91454765157092,-27.47513667230428,0 -58.91530656962836,-27.47620324404778,0 -58.91712527025198,-27.47791529360222,0 -58.91914025812518,-27.47971464641953,0 -58.91936052287213,-27.47997558210384,0 -58.91955415698902,-27.48029482550004,0 -58.92013108877319,-27.48155382034717,0 -58.92034780357321,-27.48191457019037,0 -58.92072648762311,-27.48231699503074,0 -58.92212352116997,-27.4836393649126,0 -58.92309046789648,-27.48447809425549,0 -58.92380363984094,-27.48518443314579,0 -58.92404193177494,-27.48545721096558,0 -58.92449947400856,-27.48588470928114,0 -58.92484925052975,-27.48626375354473,0 -58.92496094855357,-27.48660781301588,0 -58.92506910329246,-27.48720884520165,0 -58.92526414621489,-27.48806879869212,0 -58.92548526673064,-27.48858613698716,0 -58.92622707457689,-27.48972010651182,0 -58.92696959615555,-27.49089441884736,0 -58.92737308804902,-27.49172343334988,0 -58.92808081426636,-27.49321495904622,0 -58.92827503036808,-27.49366158733552,0 -58.92836800651124,-27.49397675565608,0 -58.9284636177269,-27.49450441649172,0 -58.92855581443118,-27.49489411591578,0 -58.92870268621291,-27.49539143375409,0 -58.92915407606988,-27.49612402805606,0 -58.93113500808357,-27.49910886697979,0 -58.93152007721537,-27.49966313390411,0 -58.93185122319927,-27.500246368187,0 -58.93237117749872,-27.50156538599853,0 -58.93284045359383,-27.50272620479216,0 -58.93328626581506,-27.50389436467777,0 -58.93348607186195,-27.50433520060811,0 -58.93380647841207,-27.50525417264634,0 -58.9344234408901,-27.50688268331457,0 -58.93464165950308,-27.50765358830376,0 -58.93491721435525,-27.50901452650733,0 -58.93526670604649,-27.50974832537402,0 -58.93583615270746,-27.51051056262643,0 -58.93618009766661,-27.51102799749046,0 -58.93637559463976,-27.51149299482449,0 -58.9364454970385,-27.51204297896269,0 -58.93613578654606,-27.51564320942241,0 -58.93564728994145,-27.52052940268905,0 -58.93563801648697,-27.52095140152693,0 -58.93578786313643,-27.52141705329579,0 -58.9361298071661,-27.52189518525374,0 -58.93787464883351,-27.52344108689109,0 -58.94224047087396,-27.52717434617351,0 -58.94574122228392,-27.5263602875278,0 -58.95338797914224,-27.51952293874252,0 -58.95401788002677,-27.52007378027955,0 -58.95453598528361,-27.5203965279374,0 -58.95515954828136,-27.52065728284879,0 -58.95585304253956,-27.52065251130531,0 -58.95646542213822,-27.52047111470877,0 -58.95699745172541,-27.52010313969916,0 -58.95737923821184,-27.51950285847924,0 -58.95751494172525,-27.51873647094722,0 -58.95759043991506,-27.51707117135106,0 -58.95765538247939,-27.5165125052421,0 -58.95791157864458,-27.51607776287656,0 -58.96559923028438,-27.50918332038215,0 -58.97281723313024,-27.50281632636603,0 
			</coordinates>
		</LineString>
		<atom:link rel="app" href="https://www.google.com/earth/about/versions/#earth-pro" title="Google Earth Pro 7.3.7.1327"></atom:link>
	</Placemark>
</Document>
</kml>
