{"type":"Feature","properties":{"nombre":"Recinto defendido del Gran Resistencia","defensaKm":31.5,"rn11Km":12.2,"cierreKm":7.9,"areaKm2":113.1,"nota":"Este y sur: la defensa (Defensa AMGR.kmz). Oeste: la RN 11. Entre la punta sur de la defensa y la RN 11, una recta supuesta."},"cierre":[[-58.97282,-27.50282],[-59.02985,-27.45218]],"geometry":{"type":"Polygon","coordinates":[[[-58.99865,-27.35248],[-58.99586,-27.35321],[-58.97388,-27.37285],[-58.97342,-27.37364],[-58.96631,-27.37997],[-58.96615,-27.38023],[-58.96622,-27.38059],[-58.96819,-27.39034],[-58.96808,-27.39061],[-58.95943,-27.39842],[-58.95928,-27.3987],[-58.95926,-27.39893],[-58.95971,-27.40017],[-58.95977,-27.40042],[-58.95975,-27.40069],[-58.95965,-27.40239],[-58.95945,-27.4037],[-58.95871,-27.40533],[-58.95854,-27.4056],[-58.95823,-27.40588],[-58.95662,-27.40726],[-58.95628,-27.40744],[-58.95538,-27.40763],[-58.94747,-27.40928],[-58.94724,-27.40938],[-58.94696,-27.40958],[-58.9436,-27.41258],[-58.93639,-27.41898],[-58.92924,-27.42531],[-58.92614,-27.42809],[-58.92596,-27.42832],[-58.92582,-27.42866],[-58.92472,-27.43159],[-58.9245,-27.43171],[-58.92254,-27.43209],[-58.922,-27.43205],[-58.92128,-27.43187],[-58.92022,-27.4315],[-58.91901,-27.43089],[-58.91867,-27.43081],[-58.91823,-27.43087],[-58.91498,-27.43158],[-58.90957,-27.43312],[-58.90436,-27.43465],[-58.89876,-27.43667],[-58.89695,-27.43739],[-58.89645,-27.43765],[-58.89291,-27.44018],[-58.89282,-27.44036],[-58.89353,-27.44094],[-58.89363,-27.44117],[-58.89422,-27.44552],[-58.89509,-27.45114],[-58.89527,-27.45179],[-58.8956,-27.45244],[-58.90002,-27.4583],[-58.90404,-27.46358],[-58.90438,-27.46406],[-58.90465,-27.46463],[-58.90488,-27.4653],[-58.90538,-27.4667],[-58.90565,-27.46725],[-58.90599,-27.46766],[-58.90657,-27.4682],[-58.90701,-27.46846],[-58.90749,-27.46858],[-58.90806,-27.46856],[-58.90851,-27.46839],[-58.90901,-27.46811],[-58.90956,-27.46783],[-58.9098,-27.46783],[-58.90996,-27.46791],[-58.91013,-27.46809],[-58.91034,-27.46848],[-58.91051,-27.46884],[-58.91119,-27.46992],[-58.91223,-27.47154],[-58.91455,-27.47514],[-58.91531,-27.4762],[-58.91713,-27.47792],[-58.91914,-27.47971],[-58.91936,-27.47998],[-58.91955,-27.48029],[-58.92013,-27.48155],[-58.92035,-27.48191],[-58.92073,-27.48232],[-58.92212,-27.48364],[-58.92309,-27.48448],[-58.9238,-27.48518],[-58.92404,-27.48546],[-58.9245,-27.48588],[-58.92485,-27.48626],[-58.92496,-27.48661],[-58.92507,-27.48721],[-58.92526,-27.48807],[-58.92549,-27.48859],[-58.92623,-27.48972],[-58.92697,-27.49089],[-58.92737,-27.49172],[-58.92808,-27.49321],[-58.92828,-27.49366],[-58.92837,-27.49398],[-58.92846,-27.4945],[-58.92856,-27.49489],[-58.9287,-27.49539],[-58.92915,-27.49612],[-58.93114,-27.49911],[-58.93152,-27.49966],[-58.93185,-27.50025],[-58.93237,-27.50157],[-58.93284,-27.50273],[-58.93329,-27.50389],[-58.93349,-27.50434],[-58.93381,-27.50525],[-58.93442,-27.50688],[-58.93464,-27.50765],[-58.93492,-27.50901],[-58.93527,-27.50975],[-58.93584,-27.51051],[-58.93618,-27.51103],[-58.93638,-27.51149],[-58.93645,-27.51204],[-58.93614,-27.51564],[-58.93565,-27.52053],[-58.93564,-27.52095],[-58.93579,-27.52142],[-58.93613,-27.5219],[-58.93787,-27.52344],[-58.94224,-27.52717],[-58.94574,-27.52636],[-58.95339,-27.51952],[-58.95402,-27.52007],[-58.95454,-27.5204],[-58.95516,-27.52066],[-58.95585,-27.52065],[-58.95647,-27.52047],[-58.957,-27.5201],[-58.95738,-27.5195],[-58.95751,-27.51874],[-58.95759,-27.51707],[-58.95766,-27.51651],[-58.95791,-27.51608],[-58.9656,-27.50918],[-58.97282,-27.50282],[-59.02985,-27.45218],[-59.02793,-27.45048],[-59.02765,-27.4502],[-59.02677,-27.44909],[-59.02645,-27.44876],[-59.02238,-27.44513],[-59.02052,-27.44343],[-59.01964,-27.44269],[-59.01755,-27.44077],[-59.01616,-27.43958],[-59.01564,-27.43909],[-59.01565,-27.43899],[-59.01559,-27.43892],[-59.01183,-27.43548],[-59.01147,-27.43507],[-59.01114,-27.43456],[-59.01094,-27.43415],[-59.01081,-27.43372],[-59.00966,-27.42736],[-59.0091,-27.42404],[-59.00894,-27.42333],[-59.00881,-27.42293],[-59.00863,-27.42252],[-59.00841,-27.42215],[-59.00796,-27.42155],[-59.00575,-27.41937],[-59.00525,-27.41879],[-59.0048,-27.41818],[-59.00444,-27.41759],[-59.00405,-27.41679],[-59.00286,-27.41382],[-58.99918,-27.40425],[-58.99826,-27.40196],[-58.9972,-27.39902],[-58.997,-27.39858],[-58.99568,-27.39523],[-58.99273,-27.38797],[-58.9925,-27.38731],[-58.99232,-27.38665],[-58.9922,-27.386],[-58.99213,-27.38535],[-58.99213,-27.3843],[-58.99232,-27.38312],[-58.99512,-27.36957],[-58.99606,-27.36505],[-58.99865,-27.35248]]]}}