{"type": "Feature", "properties": {"nombre": "Canal Avenida Soberanía Nacional", "fuente": "OpenStreetMap", "osm": [1259141386, 1259141385, 104863201], "consultado": "2026-10-08", "nota": "Corre junto a la Av. Soberanía Nacional, de oeste (cerca de la RN 11) a este. Es el corte que se toma como límite sur del área defendida."}, "geometry": {"type": "LineString", "coordinates": [[-59.0261024, -27.4548474], [-59.022893, -27.4577346], [-59.0225828, -27.4580136], [-59.019731, -27.4605203], [-59.0116925, -27.4676206], [-59.0083095, -27.4706358], [-59.0081776, -27.4707497], [-59.0072607, -27.4715417], [-59.0066552, -27.4721], [-59.0040374, -27.4744129], [-59.0012013, -27.4769499], [-58.9989479, -27.4789478], [-58.9985338, -27.4793023], [-58.9974395, -27.4802436], [-58.9967539, -27.4809265], [-58.995527, -27.4821602], [-58.9725318, -27.5025962], [-58.9543118, -27.5188287], [-58.953442, -27.5191569], [-58.9508546, -27.5202025], [-58.9492598, -27.5207639], [-58.9489219, -27.5208768], [-58.9486912, -27.5209054], [-58.9484793, -27.520922], [-58.9481145, -27.5209125], [-58.9478087, -27.5208697], [-58.9474064, -27.5208079], [-58.9470497, -27.5207841], [-58.9466271, -27.5208298], [-58.9460312, -27.5211693], [-58.9451488, -27.5216826]]}}